[{"OBJECT_NAME":"STARLINK-5709","OBJECT_ID":"2023-020BE","EPOCH":"2026-03-09T21:48:47.400480","MEAN_MOTION":15.03308687,"ECCENTRICITY":0.00014848,"INCLINATION":43.0065,"RA_OF_ASC_NODE":350.3559,"ARG_OF_PERICENTER":266.3396,"MEAN_ANOMALY":93.7277,"EPHEMERIS_TYPE":0,"CLASSIFICATION_TYPE":"U","NORAD_CAT_ID":55621,"ELEMENT_SET_NO":999,"REV_AT_EPOCH":16910,"BSTAR":0.0067132125,"MEAN_MOTION_DOT":0.00093605,"MEAN_MOTION_DDOT":0},{"OBJECT_NAME":"CENTAURI-6","OBJECT_ID":"2024-066K","EPOCH":"2026-03-09T07:44:58.674048","MEAN_MOTION":15.04786474,"ECCENTRICITY":0.00025343,"INCLINATION":45.6063,"RA_OF_ASC_NODE":55.7055,"ARG_OF_PERICENTER":285.4438,"MEAN_ANOMALY":74.6166,"EPHEMERIS_TYPE":0,"CLASSIFICATION_TYPE":"U","NORAD_CAT_ID":59451,"ELEMENT_SET_NO":999,"REV_AT_EPOCH":10507,"BSTAR":0.00052686271,"MEAN_MOTION_DOT":7.311e-5,"MEAN_MOTION_DDOT":0}]
